NORAD_CAT_ID,OBJECT_NAME,OBJECT_TYPE,EPOCH,MEAN_MOTION,ECCENTRICITY,INCLINATION,RA_OF_ASC_NODE,ARG_OF_PERICENTER,MEAN_ANOMALY,BSTAR,MEAN_MOTION_DOT,MEAN_MOTION_DDOT,TLE_LINE0,TLE_LINE1,TLE_LINE2,SEMIMAJOR_AXIS,PERIOD,APOGEE,PERIGEE,DECAYED
54060.0,STARLINK-5169,PAYLOAD,2023-11-01 03:07:02,15.10484734,0.0001739,53.2171,212.5999,77.7429,282.3759,0.00034716,5.493e-05,0.0,0 STARLINK-5169,1 54060U 22136K   23305.12988590  .00005493  00000-0  34716-3 0  9999,2 54060  53.2171 212.5999 0001739  77.7429 282.3759 15.10484734 57981,6912.858,95.334,535.925,533.521,0.0
54060.0,STARLINK-5169,PAYLOAD,2023-11-01 11:03:26,15.10481828,0.0001218,53.2167,211.1131,92.8545,267.2587,0.00021653,3.314e-05,0.0,0 STARLINK-5169,1 54060U 22136K   23305.46072501  .00003314  00000-0  21653-3 0  9998,2 54060  53.2167 211.1131 0001218  92.8545 267.2587 15.10481828 57553,6912.867,95.334,535.574,533.89,0.0
54060.0,STARLINK-5169,PAYLOAD,2023-11-01 22:10:25,15.10484229,0.0001663,53.2177,209.0276,92.0949,268.0234,0.00023729,3.661e-05,0.0,0 STARLINK-5169,1 54060U 22136K   23305.92390168  .00003661  00000-0  23729-3 0  9992,2 54060  53.2177 209.0276 0001663  92.0949 268.0234 15.10484229 57628,6912.859,95.334,535.874,533.575,0.0
54060.0,STARLINK-5169,PAYLOAD,2023-11-02 10:52:40,15.10479909,0.0001677,53.2166,206.6477,81.376,278.7423,9.8446e-05,1.347e-05,0.0,0 STARLINK-5169,1 54060U 22136K   23306.45324796  .00001347  00000-0  98446-4 0  9993,2 54060  53.2166 206.6477 0001677  81.3760 278.7423 15.10479909 58188,6912.872,95.334,535.897,533.578,0.0
54060.0,STARLINK-5169,PAYLOAD,2023-11-02 21:59:39,15.1047649,0.0001687,53.2176,204.5607,86.0592,274.0594,5.139e-05,5.63e-06,0.0,0 STARLINK-5169,1 54060U 22136K   23306.91642680  .00000563  00000-0  51390-4 0  9995,2 54060  53.2176 204.5607 0001687  86.0592 274.0594 15.10476490 57771,6912.883,95.334,535.914,533.582,0.0
54060.0,STARLINK-5169,PAYLOAD,2023-11-03 10:41:54,15.10477128,0.0001831,53.2178,202.1762,99.7932,260.3268,4.0158e-05,3.76e-06,0.0,0 STARLINK-5169,1 54060U 22136K   23307.44577128  .00000376  00000-0  40158-4 0  9990,2 54060  53.2178 202.1762 0001831  99.7932 260.3268 15.10477128 58337,6912.881,95.334,536.012,533.48,0.0
54060.0,STARLINK-5169,PAYLOAD,2023-11-03 21:48:53,15.10478678,0.0001379,53.2142,200.096,91.6273,268.4878,0.00013229,1.91e-05,0.0,0 STARLINK-5169,1 54060U 22136K   23307.90894855  .00001910  00000-0  13229-3 0  9993,2 54060  53.2142 200.0960 0001379  91.6273 268.4878 15.10478678 57922,6912.876,95.334,535.694,533.788,0.0
54060.0,STARLINK-5169,PAYLOAD,2023-11-04 10:31:08,15.10479452,0.0001463,53.215,197.7108,102.646,257.4697,0.00011529,1.627e-05,0.0,0 STARLINK-5169,1 54060U 22136K   23308.43829327  .00001627  00000-0  11529-3 0  9990,2 54060  53.2150 197.7108 0001463 102.6460 257.4697 15.10479452 58000,6912.874,95.334,535.75,533.727,0.0
54060.0,STARLINK-5169,PAYLOAD,2023-11-04 20:02:50,15.10477057,0.0001428,53.2152,195.9237,102.6085,257.5067,0.00013887,2.02e-05,0.0,0 STARLINK-5169,1 54060U 22136K   23308.83530415  .00002020  00000-0  13887-3 0  9998,2 54060  53.2152 195.9237 0001428 102.6085 257.5067 15.10477057 58549,6912.881,95.334,535.733,533.759,0.0
54060.0,STARLINK-5169,PAYLOAD,2023-11-04 23:13:24,15.10480041,0.0001437,53.2173,195.3297,95.2482,264.8675,0.00019903,3.023e-05,0.0,0 STARLINK-5169,1 54060U 22136K   23308.96764018  .00003023  00000-0  19903-3 0  9999,2 54060  53.2173 195.3297 0001437  95.2482 264.8675 15.10480041 58082,6912.872,95.334,535.73,533.744,0.0
54060.0,STARLINK-5169,PAYLOAD,2023-11-05 02:23:57,15.10485911,0.0001517,53.2163,194.73,97.4127,262.7038,0.00027521,4.293e-05,0.0,0 STARLINK-5169,1 54060U 22136K   23309.09997329  .00004293  00000-0  27521-3 0  9992,2 54060  53.2163 194.7300 0001517  97.4127 262.7038 15.10485911 58584,6912.854,95.334,535.768,533.67,0.0
54060.0,STARLINK-5169,PAYLOAD,2023-11-05 21:27:19,15.10507888,0.0001629,53.2165,191.1589,90.628,269.4899,0.0005797,9.379e-05,0.0,0 STARLINK-5169,1 54060U 22136K   23309.89397958  .00009379  00000-0  57970-3 0  9993,2 54060  53.2165 191.1589 0001629  90.6280 269.4899 15.10507888 58223,6912.787,95.332,535.778,533.526,0.0
54060.0,STARLINK-5169,PAYLOAD,2023-11-06 02:13:09,15.10532547,0.0001691,53.216,190.2636,121.1255,238.9904,0.0010713,0.00017614,0.0,0 STARLINK-5169,1 54060U 22136K   23310.09247160  .00017614  00000-0  10713-2 0  9990,2 54060  53.2160 190.2636 0001691 121.1255 238.9904 15.10532547 58736,6912.712,95.331,535.746,533.408,0.0
54060.0,STARLINK-5169,PAYLOAD,2023-11-06 19:41:16,15.10473814,0.0001509,53.2167,186.9907,120.1506,239.9637,-0.00031032,-5.455e-05,0.0,0 STARLINK-5169,1 54060U 22136K   23310.82033526 -.00005455  00000-0 -31032-3 0  9990,2 54060  53.2167 186.9907 0001509 120.1506 239.9637 15.10473814 58849,6912.891,95.334,535.799,533.713,0.0
54060.0,STARLINK-5169,PAYLOAD,2023-11-06 22:51:51,15.10434238,0.0001265,53.2165,186.395,83.4254,276.6883,-0.0013953,-0.00023418,0.0,0 STARLINK-5169,1 54060U 22136K   23310.95267829 -.00023418  00000-0 -13953-2 0  9999,2 54060  53.2165 186.3950 0001265  83.4254 276.6883 15.10434238 58386,6913.012,95.337,535.751,534.002,0.0
54060.0,STARLINK-5169,PAYLOAD,2023-11-07 02:02:25,15.10429887,0.0001212,53.2159,185.7981,74.9714,285.1413,-0.0012428,-0.00020895,0.0,0 STARLINK-5169,1 54060U 22136K   23311.08501974 -.00020895  00000-0 -12428-2 0  9998,2 54060  53.2159 185.7981 0001212  74.9714 285.1413 15.10429887 58887,6913.025,95.337,535.728,534.052,0.0
54060.0,STARLINK-5169,PAYLOAD,2023-11-07 08:23:34,15.10433888,0.0001443,53.2165,184.6081,91.6118,268.504,-0.00063418,-0.00010822,0.0,0 STARLINK-5169,1 54060U 22136K   23311.34970119 -.00010822  00000-0 -63418-3 0  9993,2 54060  53.2165 184.6081 0001443  91.6118 268.5040 15.10433888 58925,6913.013,95.337,535.875,533.88,0.0
54060.0,STARLINK-5169,PAYLOAD,2023-11-07 22:41:06,15.10491091,0.0001811,53.2159,181.9276,119.1065,241.0109,0.0017934,0.00029701,0.0,0 STARLINK-5169,1 54060U 22136K   23311.94521613  .00029701  00000-0  17934-2 0  9995,2 54060  53.2159 181.9276 0001811 119.1065 241.0109 15.10491091 59013,6912.838,95.333,535.955,533.451,0.0
54060.0,STARLINK-5169,PAYLOAD,2023-11-08 19:19:48,15.10481593,0.0001397,53.2159,178.0575,103.4363,256.6785,0.00099936,0.00016385,0.0,0 STARLINK-5169,1 54060U 22136K   23312.80541883  .00016385  00000-0  99936-3 0  9999,2 54060  53.2159 178.0575 0001397 103.4363 256.6785 15.10481593 59140,6912.867,95.334,535.698,533.767,0.0
54060.0,STARLINK-5169,PAYLOAD,2023-11-08 22:30:21,15.10486022,0.0001379,53.2162,177.463,91.7981,268.3169,0.0009738,0.0001596,0.0,0 STARLINK-5169,1 54060U 22136K   23312.93775450  .00015960  00000-0  97380-3 0  9991,2 54060  53.2162 177.4630 0001379  91.7981 268.3169 15.10486022 58680,6912.854,95.334,535.672,533.765,0.0
54060.0,STARLINK-5169,PAYLOAD,2023-11-09 14:23:09,15.10504911,0.0001347,53.2154,174.4847,91.7961,268.3186,0.00061775,0.00010014,0.0,0 STARLINK-5169,1 54060U 22136K   23313.59942073  .00010014  00000-0  61775-3 0  9995,2 54060  53.2154 174.4847 0001347  91.7961 268.3186 15.10504911 58789,6912.796,95.332,535.592,533.73,0.0
54060.0,STARLINK-5169,PAYLOAD,2023-11-09 20:44:17,15.10508515,0.0001409,53.2155,173.2938,136.4987,223.6117,0.00042784,6.843e-05,0.0,0 STARLINK-5169,1 54060U 22136K   23313.86408567  .00006843  00000-0  42784-3 0  9994,2 54060  53.2155 173.2938 0001409 136.4987 223.6117 15.10508515 59303,6912.785,95.332,535.624,533.676,0.0
54060.0,STARLINK-5169,PAYLOAD,2023-11-09 22:19:36,15.10433865,0.0001431,53.2153,172.9947,98.7347,261.3808,-0.0012462,-0.00020954,0.0,0 STARLINK-5169,1 54060U 22136K   23313.93027837 -.00020954  00000-0 -12462-2 0  9999,2 54060  53.2153 172.9947 0001431  98.7347 261.3808 15.10433865 58830,6913.013,95.337,535.867,533.889,0.0
54060.0,STARLINK-5169,PAYLOAD,2023-11-09 23:54:54,15.10401995,0.0001426,53.2154,172.6971,98.0133,262.1022,-0.0019484,-0.00032516,0.0,0 STARLINK-5169,1 54060U 22136K   23313.99645872 -.00032516  00000-0 -19484-2 0  9998,2 54060  53.2154 172.6971 0001426  98.0133 262.1022 15.10401995 59326,6913.11,95.339,535.961,533.989,0.0
54060.0,STARLINK-5169,PAYLOAD,2023-11-10 07:51:26,15.10206328,0.0001424,53.2154,171.2088,91.4552,268.6604,-0.0056434,-0.00092351,0.0,0 STARLINK-5169,1 54060U 22136K   23314.32738665 -.00092351  00000-0 -56434-2 0  9998,2 54060  53.2154 171.2088 0001424  91.4552 268.6604 15.10206328 59375,6913.707,95.351,536.557,534.588,0.0
54060.0,STARLINK-5169,PAYLOAD,2023-11-11 02:55:29,15.09667809,0.0001772,53.2156,167.6377,69.3039,290.8143,-0.010559,-0.00168219,0.0,0 STARLINK-5169,1 54060U 22136K   23315.12186380 -.00168219  00000-0 -10559-1 0  9992,2 54060  53.2156 167.6377 0001772  69.3039 290.8143 15.09667809 59498,6915.351,95.385,538.442,535.991,0.0
54060.0,STARLINK-5169,PAYLOAD,2023-11-11 14:00:01,15.08826428,0.0001536,53.2145,165.5647,94.0377,254.5558,0.0015064,0.00023759,0.0,0 STARLINK-5169,1 54060U 22136K   23315.58334491  .00023759  00000-0  15064-2 0  9994,2 54060  53.2145 165.5647 0001536  94.0377 254.5558 15.08826428 59569,6917.922,95.438,540.849,538.724,0.0
54060.0,STARLINK-5169,PAYLOAD,2023-11-11 22:00:01,15.08828915,0.000152,53.2143,164.07,85.1086,275.1441,-0.00020666,-3.574e-05,0.0,0 STARLINK-5169,1 54060U 22136K   23315.91668981 -.00003574  00000-0 -20666-3 0  9995,2 54060  53.2143 164.0700 0001520  85.1086 275.1441 15.08828915  5689,6917.914,95.438,540.831,538.728,0.0
54060.0,STARLINK-5169,PAYLOAD,2023-11-12 06:00:00,15.08844886,0.0001435,53.2143,162.5726,87.2668,284.4989,-0.0017445,-0.00027948,0.0,0 STARLINK-5169,1 54060U 22136K   23316.25001157 -.00027948  00000-0 -17445-2 0  9990,2 54060  53.2143 162.5726 0001435  87.2668 284.4989 15.08844886 59666,6917.865,95.437,540.723,538.738,0.0
54060.0,STARLINK-5169,PAYLOAD,2023-11-12 14:00:01,15.08834007,0.000148,53.2145,161.0754,94.3296,289.023,0.0014462,0.00022799,0.0,0 STARLINK-5169,1 54060U 22136K   23316.58334491  .00022799  00000-0  14462-2 0  9999,2 54060  53.2145 161.0754 0001480  94.3296 289.0230 15.08834007  5787,6917.899,95.438,540.788,538.74,0.0
